[{"OBJECT_NAME":"STARLINK-4149","OBJECT_ID":"2022-086BA","EPOCH":"2026-03-09T12:32:56.036256","MEAN_MOTION":15.08839836,"ECCENTRICITY":0.00010026,"INCLINATION":53.2177,"RA_OF_ASC_NODE":184.8733,"ARG_OF_PERICENTER":104.4351,"MEAN_ANOMALY":255.6752,"EPHEMERIS_TYPE":0,"CLASSIFICATION_TYPE":"U","NORAD_CAT_ID":53290,"ELEMENT_SET_NO":999,"REV_AT_EPOCH":20116,"BSTAR":-4.362973e-6,"MEAN_MOTION_DOT":-3.57e-6,"MEAN_MOTION_DDOT":0},{"OBJECT_NAME":"OBJECT C","OBJECT_ID":"2025-013C","EPOCH":"2026-03-09T23:45:12.010176","MEAN_MOTION":15.10546453,"ECCENTRICITY":0.00141064,"INCLINATION":97.6424,"RA_OF_ASC_NODE":238.1264,"ARG_OF_PERICENTER":358.7826,"MEAN_ANOMALY":1.3366,"EPHEMERIS_TYPE":0,"CLASSIFICATION_TYPE":"U","NORAD_CAT_ID":62731,"ELEMENT_SET_NO":999,"REV_AT_EPOCH":6235,"BSTAR":0.00030324361,"MEAN_MOTION_DOT":4.947e-5,"MEAN_MOTION_DDOT":0}]
